State,Store Name,Street,City,Zip Code,Phone
AL,HOOVER,STORE #480 5250 Medford Dr. Suite #120,Hoover,35244,205-263-4970
AL,HUNTSVILLE – MADISON,STORE #481 7504 Hwy. 72 West,Madison,35758,256-203-8334
AL,BIRMINGHAM,STORE #482 Brook Highland Plaza 5265 US Hwy. 280,Birmingham,35242,205-263-2808
AZ,CHANDLER – RAY RD.,STORE #1 Boardwalk at Andersen Springs Center 1959 W. Ray Rd.,Chandler,85224,480-732-1012
AZ,GILBERT-HIGLEY RD.,STORE #10 Higley Rd. & Baseline Rd. 1668 N. Higley Rd.,Gilbert,85234,520-652-3524
AZ,ORO VALLEY,STORE #11 Oracle Crossings Shopping Center 7665 N. Oracle Way,Oro Valley,85704,520-297-5446
AZ,SURPRISE,STORE #12 13759 W. Bell Rd.,Surprise,85374,623-544-3121
AZ,AVONDALE,STORE #13 Alameda Crossing Center 1813 N. Dysart Rd.,Avondale,85392,623-535-8989
AZ,GILBERT,STORE #14 Spectrum Falls Center 2582 S. Val Vista Dr.,Gilbert,85295,480-821-1511
AZ,CHANDLER – ALMA SCHOOL RD.,STORE #15 Las Tiendas Shopping Center 2855 S. Alma School Rd.,Chandler,85248,480-814-2700
AZ,AHWATUKEE,"STORE #16 4735 E. Ray Rd., #100",Phoenix,85044,480-295-4901
AZ,PHOENIX – GLENDALE AVE.,STORE #17 1625 E. Glendale Ave.,Phoenix,85020,602-385-2150
AZ,PHOENIX – BELL RD.,STORE #18 245 E. Bell Rd. #15,Phoenix,85022,602-218-4949
AZ,SCOTTSDALE – MILLER RD.,STORE #19 4402 N. Miller Rd.,Scottsdale,85251,480-941-6001
AZ,SCOTTSDALE – SHEA BLVD.,STORE #2 Mercado del Rancho Center 9301 E. Shea Blvd. #132,Scottsdale,85260,480-551-9665
AZ,TEMPE,STORE #20 1706 E. Southern Ave.,Tempe,85282,480-820-4900
AZ,TUCSON-RIVER RD.,STORE #21 3860 W. River Rd.,Tucson,85741,520-204-1787
AZ,TUCSON-BROADWAY BLVD.,STORE #22 Broadway Plaza 7877 E. Broadway Blvd.,Tucson,85710,520-546-6112
AZ,TUCSON-1ST AVE.,STORE #23 4282 N. 1st Ave.,Tucson,85719,520-407-5132
AZ,TUCSON-SPEEDWAY BLVD.,STORE #24 4645 E. Speedway Blvd.,Tucson,85712,520-325-1320
AZ,FLAGSTAFF,STORE #26 1540 Riordan Ranch St.,Flagstaff,86001,928-679-6000
AZ,GLENDALE – DEER VALLEY RD.,STORE #27 6760 W. Deer Valley Rd.,Glendale,85310,623-385-4430
AZ,PRESCOTT VALLEY,STORE #28 5645 E. State Route 69,Prescott Valley,86314,928-379-8000
AZ,NORTH SCOTTSDALE,STORE #29 Silverstone at Pinnacle Peak 23269 N. Scottsdale Rd.,Scottsdale,85255,480-295-4789
AZ,PEORIA – HAPPY VALLEY RD.,STORE #31 Lake Pleasant Towne Center 10134 W. Happy Valley Rd.,Peoria,85383,602-385-3392
AZ,QUEEN CREEK,STORE #32 Queen Creek Market Place 21181 S. Ellsworth Loop Rd.,Queen Creek,85142,623-385-3213
AZ,CHANDLER – GILBERT RD.,STORE #33 The Plant 4065 S. Gilbert Rd.,Chandler,85249,480-781-0088
AZ,MESA – BASELINE RD.,STORE #34 Mesa Shores 2060 E. Baseline Rd.,Mesa,85204,480-401-3758
AZ,YUMA,STORE #35 1590 S. 4th Ave.,Yuma,85364,928-388-6016
AZ,PRESCOTT,STORE #36 The Depot Marketplace 174 E. Sheldon St,Prescott,86301,928-499-3350
AZ,MESA – RECKER,STORE #37 5918 E Longbow Pkwy,Mesa,85215,480-401-3870
AZ,TEMPE-ELLIOT RD.,STORE #38 931 E. Elliot Rd.,Tempe,85284,480-567-7040
AZ,SCOTTSDALE – GAINEY RANCH,STORE #39 8787 N. Scottsdale Rd.,Scottsdale,85253,480-534-3620
AZ,PARADISE VALLEY,STORE #4 Village Plaza Shopping Center 12415 N. Tatum Blvd.,Phoenix,85032,602-971-4177
AZ,LAVEEN,STORE #40 59th Ave. & Baseline 7700 S. 59th Ave.,Laveen,85339,480-210-4896
AZ,PHOENIX – 7TH AVE.,STORE #41 3320 N. 7th Ave.,Phoenix,85013,602-384-2650
AZ,SAHUARITA,STORE #42 18755 S. Nogales Hwy.,Green Valley,85614,520-729-3370
AZ,MESA-SIGNAL BUTTE,STORE #43 1240 S. Signal Butte Rd,Mesa,85209,480-586-3710
AZ,CAVE CREEK,"STORE #44 5355 E. Carefree Hwy, Building A",Cave Creek,85331,480-637-4699
AZ,MARICOPA – JOHN WAYNE PKWY. & EDISON RD.,STORE #45 20300 N John Wayne Pkwy,Maricopa,85139,520-532-1093
AZ,SURPRISE – WADDELL,STORE #46 View Store Map 13650 N Prasada Pkwy.,Surprise,85388,480-864-1358
AZ,TUCSON-IRVINGTON RD.,STORE #47 NWC I-19 & Irvington Rd. 4800 S. Landing Way,Tucson,85714,520-524-0290
AZ,QUEEN CREEK-GANTZEL RD.,STORE #48 NWC of Gantzel Rd. & Combs Rd. 37666 N. Gantzel Rd.,Queen Creek,85140,520-614-0304
AZ,PHOENIX-99TH AVE.,STORE #49 99th Ave. & McDowell Rd. 9824 W. McDowell Rd.,Phoenix,85037,623-352-6269
AZ,MESA – BROWN RD.,STORE #5 Brown & Gilbert Plaza Shopping Center 1933 E. Brown Rd.,Mesa,85213,480-668-0800
AZ,PHOENIX-CAREFREE HWY. & I-17,STORE #51 Carefree Hwy. & I-17 34750 N. North Valley Pkwy.,Phoenix,85086,480-956-6058
AZ,PEORIA – THUNDERBIRD,STORE #6 Thunderbird Crossing Shopping Center 8375 W. Thunderbird Rd.,Peoria,85381,623-334-1111
AZ,PHOENIX – NORTHERN AVE.,STORE #7 8040 N. 19th Ave.,Phoenix,85021,602-864-6130
AZ,PHOENIX – INDIAN SCHOOL RD.,STORE #8 Indian Village Shopping Center 2824 E. Indian School Rd. #126,Phoenix,85016,602-553-3131
AZ,PHOENIX – THUNDERBIRD RD. & 43RD AVE.,STORE #9 4201 W. Thunderbird Rd.,Phoenix,85053,602-960-4587
CA,EL CAJON,STORE #202 152 N. 2nd St.,El Cajon,92021,619-579-8251
CA,SAN MARCOS,STORE #203 149 S. Las Posas Rd.,San Marcos,92078,760-208-6041
CA,TORRANCE,STORE #204 4230 Pacific Coast Hwy.,Torrance,90505,424-903-7062
CA,CLAREMONT,STORE #205 835 W. Foothill Blvd.,Claremont,91711,909-267-1049
CA,IRVINE,STORE #206 Westpark Plaza 3775 Alton Pkwy.,Irvine,92606,949-705-5435
CA,TUSTIN – HOLT AVE.,STORE #207 14945 Holt Ave.,Tustin,92780,714-415-4381
CA,SEAL BEACH,STORE #208 Shops at Rossmoor Shopping Center 12301 Seal Beach Blvd.,Seal Beach,90740,562-794-2125
CA,BREA,STORE #209 Brea Marketplace Shopping Center 735 E. Birch St.,Brea,92821,714-482-1000
CA,RIVERSIDE,STORE #210 Mission Grove Shopping Center 475 E. Alessandro Blvd.,Riverside,92508,951-565-5400
CA,ORANGE,"STORE #211 Village at Orange 1500 E. Village Way, Suite #2279",Orange,92865,714-464-1060
CA,HUNTINGTON BEACH,STORE #212 9861 Adams Ave.,Huntington Beach,92646,714-369-1139
CA,CARMEL MOUNTAIN RANCH,STORE #213 Carmel Mountain Ranch Shopping Center 11710 Carmel Mountain Rd.,San Diego,92128,858-798-7200
CA,THOUSAND OAKS,STORE #214 600 W. Hillcrest Dr.,Thousand Oaks,91360,805-716-4373
CA,CULVER CITY,STORE #215 5660 Sepulveda Blvd.,Culver City,90230,310-591-1028
CA,SUNNYVALE,STORE #216 111 E. El Camino Real,Sunnyvale,94087,408-702-1172
CA,PASADENA,STORE #217 39 N. Rosemead Blvd.,Pasadena,91107,626-696-1290
CA,VALENCIA,STORE #218 River Oaks 24285 Magic Mountain Pkwy.,Valencia,91355,661-414-1109
CA,ROSEVILLE – STANFORD RANCH RD.,STORE #219 Stanford Ranch Shopping Center 6760 Stanford Ranch Rd.,Roseville,95678,916-774-1120
CA,WESTLAKE VILLAGE,STORE #220 1012 S. Westlake Blvd.,Westlake Village,91361,805-917-4200
CA,DUBLIN,STORE #221 7153 Amador Plaza Rd.,Dublin,94568,925-307-1172
CA,REDONDO BEACH,STORE #222 1515 Hawthorne Blvd.,Redondo Beach,90278,424-903-7028
CA,GRANADA HILLS,STORE #223 10821 Zelzah Ave.,Granada Hills,91344,818-366-0717
CA,ENCINITAS,STORE #224 1327 Encinitas Blvd.,Encinitas,92024,760-633-4747
CA,LA MESA,STORE #225 4630 Palm Ave.,La Mesa,91941,619-460-7722
CA,NORTH PARK,STORE #226 4175 Park Blvd.,San Diego,92103,619-291-8287
CA,PACIFIC BEACH,STORE #227 1260 Garnet Ave.,San Diego,92109,858-270-8200
CA,POINT LOMA,"STORE #228 Loma Square Shopping Center 3315 Rosecrans St., Suite B",San Diego,92110,619-523-3640
CA,POWAY,STORE #229 13536 Poway Rd.,Poway,92064,858-486-7851
CA,ELK GROVE,STORE #230 Laguna Gateway Shopping Center 8211 Laguna Blvd.,Elk Grove,95758,916-478-9595
CA,SOLANA BEACH,STORE #231 Solana Beach Town Center 659 Lomas Sante Fe Dr.,Solana Beach,92075,858-350-7900
CA,UNIVERSITY CITY,STORE #232 3358 Governor Dr.,San Diego,92122,858-457-5006
CA,LEMON GROVE,STORE #233 3205 Lemon Grove Ave.,Lemon Grove,91945,619-667-8686
CA,SAN DIEGO – GENESEE AVE.,STORE #234 4439 Genesee Ave.,San Diego,92117,858-268-2400
CA,HEMET,STORE #235 2207 W. Florida Ave.,Hemet,92545,951-537-1975
CA,BURBANK,STORE #236 1011 N. San Fernando Blvd.,Burbank,91504,818-566-4089
CA,LAGUNA NIGUEL,STORE #237 Plaza de Paz Shopping Center 27271 La Paz Rd.,Laguna Niguel,92677,949-349-1999
CA,YORBA LINDA,STORE #238 17482 Yorba Linda Blvd.,Yorba Linda,92886,714-572-3535
CA,CARLSBAD,STORE #239 Carlsbad Plaza South Shopping Center 2618 El Camino Real,Carlsbad,92008,760-730-1123
CA,COSTA MESA – HARBOR BLVD.,"STORE #240 Costa Mesa Square Shopping Center 3030 Harbor Blvd., Suite D",Costa Mesa,92626,714-751-6399
CA,CHINO HILLS,STORE #241 Gateway Village Shopping Center 3630 Grand Ave.,Chino Hills,91709,909-548-0440
CA,MISSION VIEJO,STORE #242 27765 Santa Margarita Pkwy.,Mission Viejo,92691,949-587-3003
CA,CORONA,STORE #243 120 W. Ontario Ave.,Corona,92882,951-371-4227
CA,FULLERTON,STORE #244 1447 S. Harbor Blvd.,Fullerton,92832,714-441-1233
CA,RANCHO CUCAMONGA,STORE #245 Winery Estates Shopping Center 7355 Day Creek Blvd.,Rancho Cucamonga,91739,909-803-5730
CA,LA QUINTA,STORE #246 Pavillion Shopping Center 79050 Hwy. 111,La Quinta,92253,760-771-2485
CA,RANCHO SANTA FE,STORE #247 3243 Camino De Los Coches,Carlsbad,92009,760-635-0625
CA,TEMECULA,STORE #248 32413 Hwy. 79 South,Temecula,92592,951-303-0087
CA,RANCHO BERNARDO,STORE #249 15727 Bernardo Heights Pwky.,San Diego,92128,858-385-1606
CA,OCEANSIDE,STORE #250 Mission Market Place Shopping Center 471 College Blvd.,Oceanside,92057,760-726-7274
CA,RANCHO TEMECULA,STORE #251 Rancho Temecula Shopping Center 39606 Winchester Rd.,Temecula,92591,951-694-3680
CA,SAN PEDRO,STORE #252 820 N. Western Ave.,San Pedro,90732,310-831-7836
CA,ESCONDIDO,STORE #253 510 W. 13th Ave.,Escondido,92025,760-743-1528
CA,SANTEE,STORE #254 9361 Mission Gorge Rd.,Santee,92071,619-562-0145
CA,WOODLAND HILLS,STORE #255 Warner Center 21821 Ventura Blvd.,Woodland Hills,91364,818-887-6473
CA,TUSTIN – JAMBOREE RD.,STORE #256 The Market Place 3011 El Camino Real,Tustin,92782,714-734-8760
CA,MONROVIA,STORE #257 Huntington Plaza 400 W. Huntington Dr.,Monrovia,91016,626-358-6845
CA,COSTA MESA,STORE #258 225 E. 17th St.,Costa Mesa,92627,949-698-1094
CA,WALNUT CREEK,STORE #259 1530 Geary Rd.,Walnut Creek,94597,925-953-1113
CA,LAKEWOOD,STORE #260 4253 Woodruff Ave.,Lakewood,90713,562-739-2541
CA,LA CANADA FLINTRIDGE,STORE #261 920 Foothill Blvd.,La Canada Flintridge,91011,818-495-1103
CA,SAVI RANCH,STORE #262 22401 Old Canal Rd.,Yorba Linda,92887,714-464-1824
CA,CITRUS HEIGHTS,STORE #263 7905 Greenback Ln.,Citrus Heights,95610,916-560-2000
CA,WHITTIER,STORE #264 15801 Whittier Blvd.,Whittier,90603,562-265-2109
CA,MODESTO,STORE #265 1700 McHenry Ave.,Modesto,95350,209-527-7575
CA,SACRAMENTO,STORE #267 4408 Del Rio Rd.,Sacramento,95822,916-455-4200
CA,SAN JOSE – PROSPECT RD.,STORE #269 5205 Prospect Rd.,San Jose,95129,408-725-3970
CA,SAN JOSE – BRANHAM LN.,STORE #270 1130 Branham Ln.,San Jose,95118,408-833-1152
CA,WEST HILLS,STORE #272 6607 Fallbrook Ave.,West Hills,91307,818-867-2104
CA,FRESNO,STORE #273 7477 N. Blackstone Ave.,Fresno,93720,559-256-1735
CA,PETALUMA,"STORE #274 401 Kenilworth Dr., Suite 1040",Petaluma,94952,707-789-4976
CA,WESTWOOD,STORE #275 1751 Westwood Blvd.,Los Angeles,90024,310-500-1192
CA,DALY CITY,STORE #276 301 Gellert Blvd.,Daly City,94015,415-325-1091
CA,HUNTINGTON BEACH – WARNER AVE.,STORE #277 6942 Warner Ave.,Huntington Beach,92647,714-369-1160
CA,SAN RAMON,STORE #278 Crow Canyon Commons 3181 Crow Canyon Pl.,San Ramon,94583,925-302-1395
CA,OAKLAND,STORE #279 The Shops on Broadway 3035 Broadway,Oakland,94611,510-851-7688
CA,BAKERSFIELD,STORE #280 10650 Stockdale Hwy.,Bakersfield,93311,661-617-8957
CA,UPLAND,STORE #281 847 W. Foothill Blvd.,Upland,91786,909-912-1461
CA,SANTA CLARA,STORE #283 2060 El Camino Real,Santa Clara,95050,408-780-7248
CA,ALBANY,STORE #284 1075 Monroe St.,Albany,94706,510-345-0461
CA,LOS ANGELES – LA BREA AVE.,STORE #285 West Hollywood Gateway 915 N La Brea Ave.,Los Angeles,90038,323-217-1642
CA,LA HABRA,STORE #286 1431 W. Imperial Hwy.,La Habra,90631,562-265-2151
CA,SAN RAFAEL,STORE #288 Shamrock Center 655 Irwin St.,San Rafael,94901,415-524-1159
CA,SAN CLEMENTE,STORE #296 550 Camino De Estrella,San Clemente,92672,949-542-1036
CA,PINOLE,STORE #401 1300 Pinole Valley Rd.,Pinole,94564,510-640-8111
CA,EAGLE ROCK,STORE #403 2245 Yosemite Dr.,Los Angeles,90041,323-423-1128
CA,BRENTWOOD,STORE #404 The Streets of Brentwood 2325 Sand Creek Rd.,Brentwood,94513,925-308-1965
CA,CLOVIS,STORE #405 Clovis Crossing 850 Herndon Ave.,Clovis,93612,559-326-1169
CA,SAN JOSE – BROKAW RD.,STORE #406 1028 E. Brokaw Rd.,San Jose,95131,408-490-3041
CA,ALHAMBRA,STORE #407 Alhambra Place 150 E. Main St.,Alhambra,91801,626-863-1096
CA,ROSEVILLE – GRANITE BAY,STORE #408 Rocky Ridge Town Center 2030 Douglas Blvd.,Roseville,95661,916-462-5047
CA,SAN DIEGO – DEL SUR,STORE #409 Del Sur Town Center 16415 Paseo Del Sur,San Diego,92127,858-798-8232
CA,GLENDORA,STORE #410 Sprouts Center 655 S. Grand Ave.,Glendora,91740,626-250-6625
CA,LOS ANGELES – VENICE BLVD.,STORE #411 8985 Venice Blvd.,Los Angeles,90034,424-361-6611
CA,GOLETA,STORE #412 Fairview 175 N. Fairview Ave.,Goleta,93117,805-979-9589
CA,SIMI VALLEY,STORE #413 Sycamore Village 2800 Cochran St.,Simi Valley,93065,805-422-3363
CA,FOLSOM,STORE #414 905 E. Bidwell St.,Folsom,95630,916-605-7050
CA,VENTURA,STORE #415 Ventura Gateway 4870 Telephone Rd.,Ventura,93003,805-941-4013
CA,BRESSI RANCH,STORE #416 2634 Gateway Rd.,Carlsbad,92009,760-827-8916
CA,CLAIREMONT,STORE #417 3015 Clairemont Dr.,San Diego,92117,619-764-6015
CA,LA VERNE,STORE #418 Gateway Pointe 1375 Foothill Blvd.,La Verne,91750,909-582-2836
CA,CAMARILLO,STORE #419 2400 Las Posas Rd.,Camarillo,93010,805-233-3755
CA,DIAMOND BAR,STORE #420 239 S. Diamond Bar Blvd.,Diamond Bar,91765,909-378-4980
CA,REDLANDS,STORE #421 560 W. Stuart Ave.,Redlands,92373,909-283-7162
CA,SACRAMENTO – NATOMAS,STORE #422 2810 Del Paso Rd.,Sacramento,95834,916-431-1111
CA,ALTA LOMA,STORE #423 6753 Carnelian St.,Rancho Cucamonga,91701,909-296-3094
CA,NEWARK,STORE #424 6399 Jarvis Ave.,Newark,94560,510-789-0361
CA,CERRITOS,STORE #426 11900 South St.,Cerritos,90703,562-274-0602
CA,SAN LUIS OBISPO,STORE #427 313 Madonna Rd. Ste A,San Luis Obispo,93405,805-858-3350
CA,LINCOLN,STORE #428 115 Ferrari Ranch Rd.,Lincoln,95648,916-209-5346
CA,FONTANA,STORE #429 16964 S Highland Ave.,Fontana,92336,909-320-5360
CA,MIRA MESA,STORE #430 Mira Mesa Mall 8142 Mira Mesa Blvd.,San Diego,92126,858-880-0210
CA,LODI,STORE #431 250 E. Harney Ln.,Lodi,95240,209-371-6656
CA,VACAVILLE,STORE #432 1041 Helen Power Dr.,Vacaville,95687,707-301-4300
CA,SAN JOSE – CAPITOL EXPWY.,STORE #433 Silver Creek Plaza 1771 E. Capitol Expwy.,San Jose,95121,669-234-5260
CA,SACRAMENTO – TOWN & COUNTRY,STORE #434 Town & Country Village 2735 Marconi Ave.,Sacramento,95821,916-999-3410
CA,VISTA,STORE #435 E. Vista Way & Foothill Dr. 1400 E. Vista Way,Vista,92084,760-936-4010
CA,REDDING,STORE #436 1401 Hilltop Dr.,Redding,96003,530-999-0988
CA,LOS ANGELES – SAN VICENTE,"STORE #437 1302 S. La Brea Avenue, Suite C",Los Angeles,90019,323-801-7510
CA,WEST COVINA,STORE #438 Eastland Center 2630 E. Workman Ave.,West Covina,91791,626-257-9787
CA,LAKE FOREST,STORE #439 El Toro Rd. and Rockfield Blvd. 24332 Rockfield Blvd.,Lake Forest,92630,949-427-4020
CA,EASTVALE,STORE #440 13985 Limonite Ave.,Eastvale,92880,909-655-5356
CA,SANTA BARBARA,STORE #441 29 S. Milpas St.,Santa Barbara,93103,805-837-0356
CA,MENIFEE,STORE #443 Newport Rd. & Calle Tomas 27281 Newport Rd.,Menifee,92584,951-370-1317
CA,GARDEN GROVE,STORE #446 Chapman Ave. & Brookhurst St. 9848 Chapman Avenue,Garden Grove,92841,657-427-6713
CA,MORENO VALLEY,STORE #447 Hemlock Ave. & Heacock St. 24101 Hemlock Ave.,Moreno Valley,92557,951-567-7549
CA,FOUNTAIN VALLEY,STORE #448 Talbert Ave. & Magnolia St. 17950 Magnolia St.,Fountain Valley,92708,657-733-4525
CA,HAYWARD,STORE #449 Mission Blvd. & Harder Rd. 26207 Mission Blvd.,Hayward,94544,510-392-3338
CA,RIALTO,STORE #450 Riverside Ave. & San Bernardino Ave. 1524 S. Riverside Ave.,Rialto,92376,840-220-4266
CA,NORWALK,STORE #451 Alondra Blvd. & Maidstone Ave. 11522 Alondra Blvd.,Norwalk,90650,562-564-5410
CA,RANCHO CORDOVA,STORE #452 Zinfandel Dr. & Bear Hollow Dr. 10846 Bear Hollow Dr.,Rancho Cordova,95670,279-278-7553
CA,WOODLAND,STORE #453 E. Main St. & Hwy. 113 1430 E. Main St.,Woodland,95776,530-631-7172
CA,PALMDALE,STORE #454 10th St. & Technology Dr. 39258 10th St. W.,Palmdale,93551,661-485-1280
CA,LANCASTER,STORE #459 15th St. W. & W. Ave. K 43668 15th St. W.,Lancaster,93534,661-499-2651
CA,BAKERSFIELD-PANAMA LANE,STORE #460 NWC of Panama Ln. & Wible Rd. 3535 Panama Ln.,Bakersfield,93313,661-529-3501
CA,MERCED,STORE #461 Yosemite Ave. & G St. 171 E. Yosemite Ave.,Merced,95340,209-720-1439
CA,SAN JOSE – COLEMAN AVE.,STORE #463 San Jose Market Center 615 Coleman Ave.,San Jose,95110,669-444-3186
CA,STOCKTON,"STORE #464 Sherwood Mall Shopping Center 5308 Pacific Ave., Suite #1040",Stockton,95207,209-751-0474
CA,LATHROP,STORE #466 Golden Valley Pkwy. & River Islands Pkwy. 16576 Golden Valley Parkway,Lathrop,95330,209-670-1663
CA,CUDAHY,STORE #467 Atlantic Ave. & Elizabeth St. 7925 Atlantic Ave.,Cudahy,90201,213-259-2223
N/A,INDIAN WELLS,N/A,N/A,N/A,N/A
CA,VICTORVILLE,STORE #469 Amargosa Rd. & Bear Valley Rd. 12450 Amargosa Rd.,Victorville,92392,442-327-1306
CA,VISALIA,"STORE #473 S. Mooney Blvd. & W. Caldwell Ave. 3501 S. Mooney Blvd., Unit 120",Visalia,93277,559-553-4044
CA,SAN JOSE-N. CAPITOL AVE.,STORE #475 N. Capitol Ave. & McKee Rd. 375 N. Capitol Ave.,San Jose,95133,408-503-3250
N/A,CANYON COUNTRY,N/A,N/A,N/A,N/A
CA,STUDIO CITY,STORE #477 Ventura Blvd. & Tujunga Ave. 11315 Ventura Blvd.,Studio City,91604,747-256-6517
N/A,LAWNDALE,N/A,N/A,N/A,N/A
CA,LONG BEACH-TRAFFIC CIRCLE,STORE #487 E. Pacific Coast Hwy. & Ximeno Ave. 4600 E. Pacific Coast Hwy.,Long Beach,90804,562-286-9409
CA,PALM SPRINGS,STORE #489 Ramon Rd. & Gene Autry Trail 5200 E. Ramon Rd. Bldg. 8,Palm Springs,92264,442-407-0048
CA,DOWNEY,STORE #490 Lakewood Blvd. & Stewart and Gray Rd. 12060 Lakewood Blvd.,Downey,90242,562-545-9024
CA,CHULA VISTA (INDEPENDENTLY OPERATED*),STORE #496 *You will be redirected to the Chula Vista locations’ website. 690 3rd Ave.,Chula Vista,91910,619-409-7630
CA,CHULA VISTA EASTLAKE (INDEPENDENTLY OPERATED*),STORE #497 *You will be redirected to the Chula Vista locations’ website. 878 Eastlake Pkwy.,Chula Vista,91914,619-421-2099
CO,WESTMINSTER,STORE #301 5150 W. 120th Ave.,Westminster,80030,303-803-1010
CO,PARKER,STORE #302 9751 S. Parker Rd.,Parker,80134,720-475-8684
CO,FORT COLLINS – CORBETT DR.,STORE #303 Front Range Village Shopping Center 4345 Corbett Dr.,Fort Collins,80525,970-416-3350
CO,BOULDER – BASELINE RD.,STORE #304 2950 Baseline Rd.,Boulder,80303,720-279-6758
CO,AURORA – HAVANA ST.,STORE #305 Gardens on Havana Shopping Center 1150 S. Ironton St.,Aurora,80012,720-278-2008
CO,CENTENNIAL,STORE #306 20831 E. Smoky Hill Rd.,Centennial,80015,720-305-0959
CO,CASTLE ROCK,STORE #307 Shoppes at Castle Rock Shopping Center 5650 Allen Way,Castle Rock,80108,720-305-0684
CO,GREELEY,"STORE #308 Greeley Commons Shopping Center 4759 W. 29th St., Unit B",Greeley,80634,970-576-3050
CO,LONE TREE,STORE #309 Lincoln Commons North 10018 Commons St.,Lone Tree,80124,720-279-6616
CO,ARVADA,STORE #310 7725 Wadsworth Blvd.,Arvada,80003,303-463-4828
CO,BOULDER – ARAPAHOE AVE.,STORE #312 2525 Arapahoe Ave.,Boulder,80302,303-449-0777
CO,COLORADO SPRINGS,STORE #313 1730 Dublin Blvd.,Colorado Springs,80918,719-590-8890
CO,DENVER – 38TH AVE.,STORE #314 4700 West 38th Ave.,Denver,80212,303-433-2350
CO,DENVER – COLORADO BLVD.,STORE #315 2880 S. Colorado Blvd.,Denver,80222,303-758-4400
CO,FORT COLLINS – LEMAY AVE.,STORE #316 2601 S. Lemay Ave.,Fort Collins,80525,970-282-8003
CO,GREENWOOD VILLAGE,STORE #317 8557 E. Arapahoe Rd.,Greenwood Village,80112,303-721-1400
CO,LAFAYETTE,STORE #319 555 W. South Boulder Rd.,Lafayette,80026,303-664-1902
CO,LITTLETON-BELLEVIEW,STORE #320 Belleview Ave. & Wadsworth Blvd. 8555 W. Belleview Ave.,Littleton,80123,303-879-7427
CO,THORNTON,STORE #321 1131 E. 120th Ave.,Thornton,80233,303-457-3600
CO,DENVER – COLFAX AVE.,STORE #322 3625 E. Colfax Ave.,Denver,80206,720-347-4205
CO,LONGMONT,STORE #323 1101 S. Hover,Longmont,80501,303-834-4124
CO,GRAND JUNCTION,STORE #324 1450 W. Independent Ave.,Grand Junction,81505,970-549-3001
CO,ENGLEWOOD,STORE #325 5001 S. Broadway,Englewood,80113,720-612-6595
CO,WHEAT RIDGE,STORE #326 Kipling Ridge 3725 Kipling St.,Wheat Ridge,80033,720-305-0219
CO,LAKEWOOD,STORE #327 Fairfield Commons 98 Wadsworth Blvd.,Lakewood,80226,303-957-9276
CO,DENVER – MISSISSIPPI AVE.,STORE #328 Lion Stone 197 E. Mississippi Ave.,Denver,80209,720-458-2873
CO,COLORADO SPRINGS – NORTHGATE,STORE #329 13415 Voyager Pkwy.,Colorado Springs,80921,719-884-7900
CO,LOVELAND,STORE #330 1440 N. Lincoln Ave.,Loveland,80538,970-800-5607
CO,COLORADO SPRINGS – POWERS BLVD.,STORE #332 Powers Pointe 5617 Barnes Rd.,Colorado Springs,80917,719-313-4405
CO,WEST ARVADA,STORE #333 15050 West 64th Ave.,Arvada,80007,303-801-4570
CO,DENVER ON CENTRAL PARK BLVD.,STORE #334 3555 N. Central Park Blvd.,Denver,80238,720-780-6422
CO,DENVER – GREEN VALLEY RANCH,STORE #335 Tower Rd. & E. 56th Ave. 5670 N Tower Rd,Denver,80249,720-850-5026
CO,COLORADO SPRINGS–SOUTH NEVADA AVE.,STORE #336 S. Nevada Ave. & E. Ramona Ave. 1720 South Nevada Ave.,Colorado Springs,80905,719-719-1957
N/A,AURORA-CHAMBERS RD.,N/A,N/A,N/A,N/A
DE,WILMINGTON,STORE #816 Concord Mall 4801 Concord Pike,Wilmington,19803,302-467-2344
DE,MIDDLETOWN,STORE #817 Middletown Warwick Rd. & Doc Levinson Dr. 431 Middletown Warwick Rd.,Middletown,19709,302-534-0044
FL,SOUTH TAMPA,STORE #610 1523 S. Dale Mabry Hwy.,Tampa,33629,813-466-3390
FL,PALM HARBOR,STORE #611 33652 US Hwy 19 N,Palm Harbor,34684,727-437-3824
FL,TAMPA – CARROLLWOOD,STORE #612 Carrollwood Commons 15110 N. Dale Mabry Hwy.,Tampa,33618,813-619-4000
FL,VALRICO,STORE #613 3315 Lithia Pinecrest Rd.,Valrico,33596,813-603-9630
FL,SOUTH SARASOTA,STORE #614 Pelican Plaza 8330 S. Tamiami Trail,Sarasota,34238,941-218-8119
FL,NAPLES,STORE #615 2224 Logan Blvd. N.,Naples,34119,239-325-6950
FL,WINTER PARK,STORE #616 Winter Park Corners 1999 Aloma Ave.,Winter Park,32792,407-702-1212
FL,CLEARWATER,STORE #618 23656 US Hwy 19 N.,Clearwater,33765,727-437-1455
FL,DEERFIELD BEACH,STORE #619 Shoppes at Deerfield 930 S. Federal Hwy,Deerfield Beach,33441,954-363-2070
FL,OVIEDO,STORE #621 1121 Alafaya Trl. Ste. 1091,Oviedo,32765,407-542-6070
FL,TRINITY,STORE #622 The Village at Mitchell Ranch 8840 Strength Ave.,New Port Richey,34655,727-807-2200
FL,RIVERVIEW,STORE #623 US-301 & Summerfield Crossing Blvd. 12960 S. US HWY 301,Riverview,33578,813-284-3440
FL,JACKSONVILLE,STORE #624 4873 Town Center Parkway,Jacksonville,32246,904-438-7840
FL,JUPITER,STORE #625 Admirals Crossing 3757 Military Trail,Jupiter,33458,561-658-4062
FL,MIRAMAR,STORE #626 12216 Miramar Parkway,Miramar,33025,754-799-8177
FL,JACKSONVILLE – BEACH BLVD.,"STORE #627 12675 Beach Blvd, Suite 200",Jacksonville,32246,904-539-8317
FL,SEMINOLE,STORE #628 7263 Seminole Blvd.,Seminole,33772,727-655-9055
FL,STUART,STORE #629 3150 SE Federal Highway,Stuart,34994,772-272-9698
FL,NEW TAMPA,STORE #630 8620 Hunters Village Road,New Tampa,33647,813-683-8072
FL,ESTERO,STORE #631 19990 S. Tamiami Trail,Estero,33928,239-306-5384
FL,BOYNTON BEACH,STORE #632 9850 Jog Rd.,Boynton Beach,33437,561-739-1834
FL,TAMPA – WESTCHASE,STORE #633 10619 Sheldon Rd.,Tampa,33626,772-348-2150
FL,ORLANDO – DR. PHILLIPS,"STORE #634 7603 Turkey Lake Rd., Suite 101",Orlando,32819,321-340-2023
FL,BRANDON,STORE #635 11339 Causeway Blvd.,Brandon,33511,813-725-1220
FL,TAMPA HEIGHTS,"STORE #636 W 7th Ave. & Tampa St. 101 W 7th Ave.,",Tampa,33602,813-807-3146
FL,OAKLAND PARK,STORE #637 NE. 6th Ave. & E. Oakland Park Blvd. 700 E Oakland Park Blvd.,Oakland Park,33334,561-894-0789
FL,MIAMI – WEST KENDALL,STORE #638 SW. 88th St. & SW. 127th Ave. 12690 SW 88th Street,Miami,33186,786-798-7074
FL,DANIA BEACH,STORE #639 150 S. Compass Way,Dania Beach,33004,954-715-3376
N/A,PORT ST. LUCIE,STORE #640 St. Lucie Blvd. & NW Peacock Blvd. 1759 NW St. Lucie West Blvd.,N/A,N/A,772-310-5465
FL,HOMESTEAD,STORE #641 Campbell Dr. & Newton Rd. 2631 NE 10th Ct.,Homestead,33033,754-764-7247
FL,ORLANDO – COLONIAL PLAZA,STORE #642 Colonial Plaza 2530 E Colonial Dr,Orlando,32803,689-219-8967
FL,DELRAY BEACH,STORE #643 Delray Commons 5030 W. Atlantic Ave.,Delray Beach,33484,561-654-2692
FL,WEST PALM BEACH,STORE #644 Military Trail & Okeechobee Blvd. 1901-B North Military Trail,West Palm Beach,33409,561-835-5418
FL,BRADENTON,STORE #645 Cortez Rd. & US Hwy. 41 1149 Cortez Rd. W.,Bradenton,34207,941-297-2359
FL,APOPKA,STORE #646 Semoran Blvd. & Wekiwa Springs Rd. 2283 E. Semoran Blvd.,Apopka,32703,689-336-2070
N/A,EAST BOYNTON BEACH,N/A,N/A,N/A,N/A
FL,WEST BOCA,STORE #648 Glades Rd. & US 441 S. 9831 Glades Rd.,Boca Raton,33434,561-880-9105
FL,TAMPA-UPTOWN,STORE #649 E Fowler Ave. & N 22nd Ave. 2150 E. Fowler Ave.,Tampa,33612,813-771-9936
FL,THE VILLAGES,STORE #650 466 & Buena Vista Blvd. 330 Buena Vista Blvd.,The Villages,32162,352-706-2925
FL,ORLANDO-WATERFORD LAKES VILLAGE,STORE #651 Waterford Lakes Shopping Mall 12500 Lake Underhill Rd.,Orlando,32828,689-303-4690
FL,CAPE CORAL,STORE #653 Pine Island Rd. & Pondella Rd. 1800 NE Pine Island Rd.,Cape Coral,33909,239-392-1396
N/A,FORT MYERS,"STORE #654 College Pkwy. & Winkler Rd. 8595 College Pkwy., Ste. 210",N/A,N/A,239-396-5883
FL,KENNETH CITY,STORE #655 66th St & 46th Ave. 4571 66th St. N.,Kenneth City,33709,727-620-6030
FL,MIAMI-COCONUT GROVE,STORE #656 27th Ave. & Dixie Hwy. 2750 SW 27th Ter. Ste. 102,Miami,33133,561-765-2216
FL,WEST MELBOURNE-PALM BAY,STORE #657 Hollywood Blvd. & Palm Bay Rd. 4460 Hollywood Blvd.,West Melbourne,32904,321-462-3184
FL,PORT CHARLOTTE,"STORE #658 Tamiami Trail & Cochran Blvd. 2000 Tamiami Trail, Unit 224",Port Charlotte,33948,941-699-2501
N/A,COCONUT CREEK,N/A,N/A,N/A,N/A
FL,SARASOTA-DOWNTOWN,STORE #660 Hwy. 301 & Fruitville Rd. 111 Links Ave.,Sarasota,34236,941-278-4790
FL,BROOKSVILLE-SPRING HILL,STORE #661 Cortez Blvd. & Mariner Blvd. 7187 Coastal Blvd.,Brooksville,34613,352-675-4258
N/A,LARGO,N/A,N/A,N/A,N/A
N/A,MELBOURNE-WICKHAM,N/A,N/A,N/A,N/A
N/A,POINCIANA,N/A,N/A,N/A,N/A
N/A,LUTZ,N/A,N/A,N/A,N/A
N/A,DEERFIELD BEACH,N/A,N/A,N/A,N/A
N/A,ST. JOHNS,STORE #672 St. Johns Pkwy. & County Rd. 210 120 Shops Blvd.,N/A,N/A,904-921-4688
GA,SNELLVILLE,"STORE #512 1250 Scenic Highway, Ste. 1704",Lawrenceville,30045,678-690-1279
GA,PEACHTREE CORNERS,STORE #513 5130 Peachtree Pkwy.,Peachtree Corners,30092,678-690-1249
GA,CUMMING,STORE #515 Lakeland Plaza 530 Lakeland Plz.,Cumming,30040,470-505-2000
GA,JOHNS CREEK,STORE #516 3630 Peachtree Pkwy.,Suwanee,30024,678-690-1243
GA,SMYRNA,STORE #518 Olde Ivy Village 4330 East-West Conn.,Smyrna,30082,770-200-7587
GA,ATLANTA – MORNINGSIDE,STORE #519 Rock Springs 1845 Piedmont Ave.,Atlanta,30324,404-751-0605
GA,ROSWELL,STORE #520 Roswell Market Place 10800 Alpharetta Hwy.,Roswell,30076,678-353-0102
GA,EAST COBB,STORE #521 Providence Square 4101 Roswell Rd.,Marietta,30062,770-200-9172
GA,WOODSTOCK,STORE #523 1430 Towne Lake Pkwy.,Woodstock,30189,678-224-9799
GA,PEACHTREE CITY,STORE #524 2015 E. Highway 54,Peachtree City,30269,678-586-2577
GA,DECATUR,STORE #525 2551 Blackmon Dr.,Decatur,30033,404-965-6290
GA,WEST COBB,STORE #526 3805 Dallas Hwy. SW,Marietta,30064,678-919-8701
GA,TUCKER,STORE #527 4310 Lavista Rd.,Tucker,30084,470-260-2368
GA,AUGUSTA,STORE #528 630 Crane Creek Dr.,Augusta,30907,706-993-9150
GA,BUFORD – I-85 & HWY. 20,"STORE #529 2925 Buford Drive, Suite 2400",Buford,30519,470-600-6528
GA,SMYRNA – CUMBERLAND BLVD.,STORE #530 2530 Cumberland Blvd,Smyrna,30080,470-750-1841
GA,STOCKBRIDGE,STORE #532 Jodeco Rd. & Mt. Olive Rd. 1040 Chen Pkwy.,McDonough,30253,678-470-0983
KS,OVERLAND PARK,STORE #171 6821 W. 135th St.,Overland Park,66223,913-643-4190
KS,LAWRENCE,STORE #173 Bauer Farms 4740 Bauer Farm Dr.,Lawrence,66049,785-727-7314
KS,LENEXA,STORE #174 8550 Maurer Rd.,Lenexa,66219,913-312-1586
KS,OVERLAND PARK – NALL AVE.,STORE #176 Nall Hills 9628 Nall Ave.,Overland Park,66207,913-643-9170
LA,BATON ROUGE,STORE #691 Perkins Rd. & Rouzan Ave. 4841 Rouzan Square Ave,Baton Rouge,70808,225-614-9131
MD,ELLICOTT CITY,"STORE #916 9150 Baltimore National Pike,",Ellicott City,21042,410-696-3160
MD,TOWSON,STORE #917 803 Goucher Blvd.,Towson,21286,410-842-6010
MD,BEL AIR,STORE #918 Tollgate Marketplace 680 Marketplace Drive,Bel Air,21014,443-567-7788
MD,PASADENA,"STORE #919 8048 Ritchie Highway, Suite 6B",Pasadena,21122,443-960-8484
MD,BALTIMORE,STORE #920 3800 Boston St.,Baltimore,21224,443-836-5882
MD,BURTONSVILLE,STORE #921 Old Columbia Pike & Sandy Spring Rd. 15793 Old Columbia Pike,Burtonsville,20866,240-883-9223
MD,WESTMINSTER-BALTIMORE BLVD.,STORE #922 Route 140 & N. Center St. 255 Baltimore Blvd. Ste. 4,Westminster,21157,443-452-6734
MO,KANSAS CITY NORTH,STORE #721 8383 N. Booth Ave.,Kansas City,64158,816-222-0202
MO,KANSAS CITY,STORE #722 6061 NW. 64th St.,Kansas City,64151,816-303-6503
N/A,LEE’S SUMMIT,STORE #723 800 NE Hwy. 291,N/A,N/A,816-272-7038
NV,LAS VEGAS – TROPICANA AVE.,STORE #501 3365 E. Tropicana Ave.,Las Vegas,89121,702-777-0650
NV,LAS VEGAS – RAINBOW BLVD.,STORE #502 4020 S. Rainbow Blvd.,Las Vegas,89103,702-876-4888
NV,HENDERSON – GREEN VALLEY,STORE #503 635 S. Green Valley Pkwy.,Henderson,89052,702-322-2229
NV,HENDERSON – STEPHANIE ST.,STORE #504 515 N. Stephanie St.,Henderson,89014,702-777-7095
NV,LAS VEGAS – SAHARA AVE.,STORE #505 10000 W. Sahara Ave.,Las Vegas,89117,702-216-5060
NV,LAS VEGAS – CENTENNIAL,STORE #506 8441 Farm Rd.,Las Vegas,89131,702-583-3830
NV,LAS VEGAS – LAKE MEAD,STORE #507 Summerlin Gateway Plaza 7530 W. Lake Mead Blvd.,Las Vegas,89128,702-216-3556
NV,RENO,STORE #508 587 S. Meadows Pkwy.,Reno,89521,775-335-1055
NV,LAS VEGAS-SILVERADO RANCH,STORE #509 1140 E. Silverado Ranch Blvd.,Las Vegas,89183,702-750-3570
NV,LAS VEGAS – RAINBOW,STORE #510 7375 S. Rainbow Blvd.,Las Vegas,89139,702-670-4450
NV,SPARKS,STORE #511 125 Disc Dr.,Sparks,89436,775-834-0210
NV,LAS VEGAS – DECATUR,STORE #558 6150 N. Decatur Blvd.,Las Vegas,89031,702-273-3490
NV,LAS VEGAS – ALTA,STORE #559 771 S. Rainbow Blvd.,Las Vegas,89145,702-984-4330
NV,RENO – PLUMB LN.,"STORE #560 Reno Public Market 299 E. Plumb Lane, Suite 120",Reno,89502,775-446-3979
NV,NORTH LAS VEGAS,STORE #561 Centennial Village 6506 N. Losee Rd.,North Las Vegas,89086,702-857-6362
N/A,HENDERSON-LAKE MEAD PKWY.,N/A,N/A,N/A,N/A
NJ,MARLTON,STORE #945 227 Route 73 S,Marlton,08053,856-355-8228
NJ,HADDON TOWNSHIP,STORE #946 Cuthbert Blvd. & MacArthur Blvd. 640 W Cuthbert Blvd.,Haddon Township,08108,856-873-9052
NJ,ABERDEEN,STORE #947 Hwy. 35 & Cliffwood Ave. 327 Hwy. 35,Cliffwood,07721,732-554-2076
NM,ALBUQUERQUE – CORRALES RD.,"STORE #701 10701 Corrales Rd., NW",Albuquerque,87114,505-890-7900
NM,ALBUQUERQUE – LOMAS BLVD.,"STORE #702 5112 Lomas Blvd., NE",Albuquerque,87110,505-268-5127
NM,ALBUQUERQUE – MONTGOMERY BLVD.,"STORE #703 11201 Montgomery Blvd., NE",Albuquerque,87111,505-298-2447
NM,ALBUQUERQUE – SAN MATEO BLVD.,"STORE #704 6300 San Mateo Blvd., NE",Albuquerque,87109,505-821-7000
NM,SANTA FE – ZAFARANO DR.,"STORE #705 3201 Zafarano Dr., Suite 20",Santa Fe,87507,505-424-1900
NM,SANTA FE – PASEO DE PERALTA,STORE #706 199 Paseo de Peralta,Santa Fe,87501,505-988-1140
NM,ALBUQUERQUE – FOUR HILLS,STORE #707 Four Hills Shopping Center 13150 Central Ave. SE,Albuquerque,87123,505-998-1025
NM,ALBUQUERQUE-COORS BLVD.,STORE #708 5600 Coors Blvd. NW,Albuquerque,87120,505-355-3850
NM,LAS CRUCES,STORE #709 2340 E. Lohman Ave.,Las Cruces,88001,575-680-3680
NM,RIO RANCHO,STORE #710 NM-528 & Enchanted Hills Blvd. 3575 NM 528,Rio Rancho,87144,505-552-3341
NC,RALEIGH – FALLS OF NEUSE,STORE #540 9414 Falls of Neuse Rd.,Raleigh,27615,919-326-2530
NC,BALLANTYNE,STORE #541 15121 Ballancroft Pkwy.,Charlotte,28277,704-778-3010
NC,FAYETTEVILLE,STORE #542 Freedom Town Center 2810 Freedom Parkway Dr.,Fayetteville,28314,910-748-5985
NC,DURHAM,STORE #543 105 W. NC Hwy 54,Durham,27713,919-768-4055
NC,GREENSBORO,STORE #544 Westridge Square 3357 Battleground Ave,Greensboro,27410,336-252-5250
N/A,CHARLOTTE-STEELE CREEK,N/A,N/A,N/A,N/A
OK,OKLAHOMA CITY,STORE #801 6410 North May Ave.,Oklahoma City,73116,405-879-9989
OK,EDMOND,STORE #802 24 E. 2nd St.,Edmond,73034,405-341-5727
OK,NORMAN,STORE #803 559 W. Main St.,Norman,73069,405-217-4601
OK,BIXBY,STORE #804 10111 S. Memorial Dr.,Tulsa,74133,918-364-7272
OK,TULSA,STORE #805 4123 S. Harvard Ave.,Tulsa,74135,918-858-8850
OK,BROKEN ARROW,STORE #806 851 E. Hillside Dr.,Broken Arrow,74012,918-806-0810
OK,OWASSO,STORE #807 9601 N. 133rd E. Ave.,Owasso,74055,918-516-6656
OK,NW OKLAHOMA CITY,STORE #808 12200 N. MacArthur Blvd.,Oklahoma City,73162,405-384-7577
OK,YUKON,STORE #809 Chisholm Shopping Center 1105 Garth Brooks Blvd.,Yukon,73099,405-494-3054
OK,STILLWATER,STORE #810 909 W. 6th Ave.,Stillwater,74074,405-571-3153
OK,MOORE,STORE #812 12100 S Pennsylvania Ave.,Oklahoma City,73170,405-416-7650
PA,PHILADELPHIA,STORE #850 1000 S. Broad St.,Philadelphia,19146,215-606-2400
PA,UPPER DUBLIN,STORE #851 2001 Welsh Rd.,Dresher,19025,267-715-0602
PA,PHILADELPHIA-ROOSEVELT MALL,STORE #854 Cottman Ave. & Bustleton Ave. 2327 Cottman Ave.,Philadelphia,19149,267-691-0076
PA,PHILADELPHIA-OREGON AVE.,"STORE #855 Quartermaster Plaza, Oregon Ave. & 23rd St. 2370 W Oregon Ave.",Philadelphia,19145,267-539-9365
PA,YORK,STORE #857 Manchester Crossroads Shopping Mall 351 Loucks Rd. Ste. C-1,York,17404,717-415-3871
SC,SIMPSONVILLE,STORE #563 2200 Woodruff Rd.,Simpsonville,29681,864-757-3240
SC,GREENVILLE,STORE #565 E. North St. & Pelham Rd. 2435 E. North St. Ste. 1106,Greenville,29615,864-914-3148
TN,LAKELAND,STORE #578 9050 Hwy. 64,Lakeland,38002,901-259-3450
TN,GERMANTOWN,STORE #579 The Shops at Forest Hill 3150 Village Shops Dr.,Germantown,38138,901-259-7020
TN,FRANKLIN,STORE #580 Maples Shopping Center 1010 Murfreesboro Rd.,Franklin,37064,615-567-0191
TN,MURFREESBORO,STORE #581 143 Wendelwood Dr.,Murfreesboro,37129,615-486-6081
TN,BELLEVUE,STORE #582 7620 Hwy. 70 S.,Nashville,37221,615-209-7940
TN,EAST MEMPHIS,STORE #583 576 S. Perkins,Memphis,38117,901-620-4405
TN,NASHVILLE-NOLENSVILLE,STORE #585 View Store Map 5821 Nolensville Pike,Nashville,37211,629-736-3268
TN,MADISON,STORE #586 Gallatin Pike N. & Conference Dr. 2156 Gallatin Pike N.,Madison,37115,615-559-1941
TX,PLANO,STORE #101 4100 Legacy Dr. #401,Plano,75024,972-618-8902
TX,FLOWER MOUND,STORE #102 Marketplace at Flower Mound 2301 Cross Timbers Rd.,Flower Mound,75028,972-874-7380
TX,DALLAS – MARSH LN.,STORE #103 Park Forest Shopping Center 11722 Marsh Ln.,Dallas,75229,214-350-0574
TX,SOUTHLAKE,STORE #104 220 Randol Mill Ave.,Southlake,76092,682-223-5805
TX,FRISCO,STORE #105 5190 Preston Rd.,Frisco,75034,972-464-5776
TX,RICHARDSON,STORE #106 1343 W. Campbell Rd.,Richardson,75080,214-442-5961
TX,MURPHY,STORE #107 Murphy Marketplace Shopping Center 207 E. FM 544,Murphy,75094,972-265-4770
TX,COPPELL,STORE #108 110 W. Sandy Lake Rd.,Coppell,75019,972-350-8051
TX,ROUND ROCK,STORE #110 Market at Round Rock Shopping Center 110 Interstate Hwy. 35 N.,Round Rock,78681,512-334-4684
TX,AUSTIN – GREAT HILLS,STORE #112 Great Hills Station Shopping Center 10225 Research Blvd.,Austin,78759,512-225-9101
TX,CEDAR HILL,STORE #113 362 E. FM 1382,Cedar Hill,75104,972-637-5108
TX,FORT WORTH,STORE #114 Overton Park Plaza 4650 SW Loop 820,Fort Worth,76109,682-747-5790
TX,CARROLLTON,STORE #115 1745 E. Hebron Pkwy.,Carrollton,75010,972-428-5785
TX,AUSTIN – SOUTH LAMAR BLVD.,STORE #117 Brodie Oaks Shopping Center 4006 S. Lamar Blvd.,Austin,78704,512-444-3079
TX,SAN ANTONIO – CALLAGHAN RD.,STORE #118 Grand View Shopping Center 8101 Callaghan Rd.,San Antonio,78230,210-979-8121
TX,CORPUS CHRISTI,STORE #119 Gulf Way Shopping Center 1440 Airline Rd.,Corpus Christi,78412,361-993-2850
TX,EL PASO,STORE #120 Coronado Hills Shopping Center 655 Sunland Park Dr.,El Paso,79912,915-833-3380
TX,MCALLEN,STORE #121 5800 N. 10th St.,McAllen,78504,956-331-2123
TX,SAN ANTONIO – BULVERDE RD.,STORE #123 22135 S. Bulverde Rd.,San Antonio,78259,210-350-3985
TX,LUBBOCK,"STORE #124 Kings Gate South Shopping Center 8201 Quaker Ave., Suite 140",Lubbock,79424,806-794-4900
TX,AUSTIN – MANCHACA RD.,STORE #125 6920 Manchaca Rd.,Austin,78745,512-687-2204
TX,DALLAS – HENDERSON AVE.,STORE #126 1800 N. Henderson Ave.,Dallas,75206,214-826-2937
TX,KATY,STORE #127 23105 Cinco Ranch Blvd.,Katy,77494,281-769-0444
TX,SPRING CYPRESS VILLAGE,STORE #130 22506 Tomball Pkwy.,Houston,77070,832-698-0004
TX,COPPERFIELD,STORE #131 7055 Hwy 6 N,Houston,77095,832-575-2201
TX,MCKINNEY,STORE #132 9241 Virginia Pkwy.,McKinney,75071,469-481-5000
TX,KELLER,STORE #134 2003 S. Main St.,Keller,76248,817-380-7024
TX,THE HEIGHTS,STORE #136 195 Yale St.,Houston,77007,713-395-4590
TX,CEDAR PARK,STORE #138 1530 Cypress Creek Rd,Cedar Park,78613,512-279-8312
TX,SPRING,STORE #139 20708 Kuykendahl Rd.,Spring,77379,832-764-5424
TX,ARLINGTON,STORE #140 5711 W. Interstate 20 Hwy.,Arlington,76017,682-587-0086
TX,HURST,STORE #142 316 Grapevine Hwy.,Hurst,76054,682-325-5977
TX,MANSFIELD,STORE #143 1550 E. Debbie Ln.,Mansfield,76063,682-422-0061
TX,FORT WORTH – CAMP BOWIE,STORE #144 Village at Camp Bowie 6300 Waverly Wy.,Fort Worth,76116,682-747-5456
TX,ROWLETT,STORE #145 3001 Lakeview Pkwy.,Rowlett,75088,972-265-0386
TX,PEARLAND,STORE #146 2718 Old Chocolate Bayou Rd.,Pearland,77584,713-482-3987
TX,ALLEN,STORE #147 Exchange Center 1265 W. Exchange Pkwy.,Allen,75013,972-521-0057
TX,DENTON,STORE #148 Hickory Creek Plaza 4930 Teasley Lane,Denton,76210,940-999-2263
TX,LAKE HIGHLANDS,STORE #149 Lake Highlands Town Center 7110 Skillman St.,Dallas,75231,469-210-8166
TX,EL PASO – ZARAGOZA RD.,STORE #150 2036 N Zaragoza Rd.,El Paso,79938,915-218-2954
TX,FRISCO – ELDORADO PKWY.,STORE #151 2500 Eldorado Pkwy.,Frisco,75033,469-731-7261
TX,EL PASO – GATEWAY,STORE #153 9801 Gateway Blvd. West,El Paso,79925,915-444-3585
TX,MESQUITE,"STORE #155 1220 N Town East Blvd, Suite 650",Mesquite,75150,469-983-2045
TX,TYLER,STORE #157 4015 S. Broadway Ave.,Tyler,75701,903-747-1118
TX,LAS COLINAS,"STORE #158 N. MacArthur Blvd. & Las Colinas Blvd. 7730 N MacArthur Blvd, Suite 150",Las Colinas,75063,972-232-7926
TX,GRAND PRAIRIE,"STORE #159 S. Carrier Pkwy. & W. Pioneer Pkwy. 2500 S Carrier Pkwy. Suite B,",Grand Prairie,75052,469-870-7863
TX,DALLAS-HILLSIDE,STORE #160 Hillside Village Shopping Center 6465 E. Mockingbird Ln. Ste. 322,Dallas,75214,945-219-3141
TX,SAN ANTONIO – HWY 151,STORE #161 Hwy 151 & Hunt Ln. 9702 State Highway 151,San Antonio,78251,726-227-8068
TX,AUSTIN-MUELLER,"STORE #162 Barbara Jordan Blvd. & I-35 1201 Barbara Jordan Blvd., BLDG 7",Austin,78723,737-301-5648
TX,TRINITY MILLS,STORE #163 Trinity Mills & N. Dallas Pkwy. 17795 Dallas Pkwy.,Dallas,75287,469-865-1876
TX,ROCKWALL,STORE #166 E. Interstate 30 & Ridge Rd. 469 E. Interstate 30,Rockwall,75087,254-269-4011
TX,NORTH FORT WORTH-W. BAILEY BOSWELL RD.,STORE #167 Bailey Boswell Rd. & Old Decatur Rd. 4525 W. Bailey Boswell Rd.,Fort Worth,76179,682-432-7579
TX,MCKINNEY-VIRGINIA PKWY. & CENTRAL EXPY.,STORE #168 Virginia Pkwy. & Central Expy. 2201 Virginia Pkwy.,McKinney,75071,430-262-6085
TX,GEORGETOWN-WILDWOOD DR.,"STORE #169 Wildwood Dr. & Williams Dr. 4610 Williams Dr., Ste. 107",Georgetown,78633,512-882-7493
UT,MURRAY,STORE #601 6284 S. State St.,Murray,84107,801-266-3566
UT,OREM,STORE #602 1375 S. State St.,Orem,84097,801-434-1501
UT,SALT LAKE CITY,STORE #603 216 S. 700 East,Salt Lake City,84102,801-364-1602
UT,HOLLADAY,STORE #604 1785 E. Murray Holladay Rd.,Holladay,84117,385-695-6817
UT,SOUTH JORDAN,STORE #605 11519 S. 4000 W.,South Jordan,84009,385-695-6809
VA,HERNDON,"STORE #886 Herndon Centre 494 Elden St., Suite 110",Herndon,20170,703-480-7930
VA,MANASSAS,STORE #887 Manaport Plaza 8431 Sudley Rd.,Manassas,20109,571-579-3257
VA,LEESBURG,STORE #888 Edwards Ferry Rd. NE & Route 15 1021B Edwards Ferry Rd. NE,Leesburg,20176,571-617-7904
WA,MILL CREEK,STORE #456 Gateway 13314 Bothell Everett Hwy,Mill Creek,98012,425-332-6670
WA,SEATTLE,STORE #457 13010 Aurora Ave. N.,Seattle,98133,206-337-4625
WA,SILVERDALE,"STORE #458 11066 Pacific Crest Place NW, Suite A150",Silverdale,98383,360-900-4125
WY,CHEYENNE,STORE #338 Rue Terre & Frontier Mall Dr. 5214 Rue Terre,Cheyenne,82009,307-317-7820
